{"type": "FeatureCollection", "features": [ {"type": "Feature", "properties": {"norad_id": 33867, "name": "IRIDIUM 33 DEB", "group": "iridium-33-debris", "lat": 14.540397790380927, "lon": 167.37437366527533, "alt_km": 347.62105220938156, "timestamp": "2025-12-16T03:53:27.440147+00:00", "meta": {"OBJECT_NAME": "IRIDIUM 33 DEB", "OBJECT_ID": "1997-051AL", "EPOCH": "2025-12-14T23:42:29.137536", "MEAN_MOTION": 15.72109252, "ECCENTRICITY": 0.00134585, "INCLINATION": 86.3648, "RA_OF_ASC_NODE": 348.9333, "ARG_OF_PERICENTER": 89.1802, "MEAN_ANOMALY": 271.1011, "EPHEMERIS_TYPE": 0, "CLASSIFICATION_TYPE": "U", "NORAD_CAT_ID": 33867, "ELEMENT_SET_NO": 999, "REV_AT_EPOCH": 89546, "BSTAR": 0.0054513416, "MEAN_MOTION_DOT": 0.00783723, "MEAN_MOTION_DDOT": 0}, "tle": {"line1": "1 33867U 97051AL  25348.98783724  .00783723  00000+0  54513-2 0  9998", "line2": "2 33867  86.3648 348.9333 0013458  89.1802 271.1011 15.72109252895465"}}, "geometry": {"type": "Point", "coordinates": [167.37437366527533, 14.540397790380927]}}, {"type": "Feature", "properties": {"norad_id": 33870, "name": "IRIDIUM 33 DEB", "group": "iridium-33-debris", "lat": 51.19682629696516, "lon": -127.72800453250166, "alt_km": 722.3808199335408, "timestamp": "2025-12-16T03:53:27.440158+00:00", "meta": {"OBJECT_NAME": "IRIDIUM 33 DEB", "OBJECT_ID": "1997-051AP", "EPOCH": "2025-12-15T04:10:48.574848", "MEAN_MOTION": 14.45866059, "ECCENTRICITY": 0.00217446, "INCLINATION": 86.3749, "RA_OF_ASC_NODE": 57.2172, "ARG_OF_PERICENTER": 170.2327, "MEAN_ANOMALY": 219.395, "EPHEMERIS_TYPE": 0, "CLASSIFICATION_TYPE": "U", "NORAD_CAT_ID": 33870, "ELEMENT_SET_NO": 999, "REV_AT_EPOCH": 88172, "BSTAR": 0.00054576432, "MEAN_MOTION_DOT": 1.963e-05, "MEAN_MOTION_DDOT": 0}, "tle": {"line1": "1 33870U 97051AP  25349.17417332  .00001963  00000+0  54576-3 0  9992", "line2": "2 33870  86.3749  57.2172 0021744 170.2327 219.3950 14.45866059881727"}}, "geometry": {"type": "Point", "coordinates": [-127.72800453250166, 51.19682629696516]}}, {"type": "Feature", "properties": {"norad_id": 33881, "name": "IRIDIUM 33 DEB", "group": "iridium-33-debris", "lat": 50.93404367017387, "lon": -79.21138791344787, "alt_km": 663.5145538918259, "timestamp": "2025-12-16T03:53:27.440169+00:00", "meta": {"OBJECT_NAME": "IRIDIUM 33 DEB", "OBJECT_ID": "1997-051BA", "EPOCH": "2025-12-15T07:47:50.945280", "MEAN_MOTION": 14.56627803, "ECCENTRICITY": 0.00615046, "INCLINATION": 86.3858, "RA_OF_ASC_NODE": 105.6186, "ARG_OF_PERICENTER": 166.2972, "MEAN_ANOMALY": 255.4679, "EPHEMERIS_TYPE": 0, "CLASSIFICATION_TYPE": "U", "NORAD_CAT_ID": 33881, "ELEMENT_SET_NO": 999, "REV_AT_EPOCH": 87538, "BSTAR": 0.0012949657, "MEAN_MOTION_DOT": 5.947e-05, "MEAN_MOTION_DDOT": 0}, "tle": {"line1": "1 33881U 97051BA  25349.32489520  .00005947  00000+0  12950-2 0  9994", "line2": "2 33881  86.3858 105.6186 0061504 166.2972 255.4679 14.56627803875380"}}, "geometry": {"type": "Point", "coordinates": [-79.21138791344787, 50.93404367017387]}}, {"type": "Feature", "properties": {"norad_id": 33884, "name": "IRIDIUM 33 DEB", "group": "iridium-33-debris", "lat": -27.52304079637602, "lon": 6.378262364083356, "alt_km": 636.9827101193787, "timestamp": "2025-12-16T03:53:27.440180+00:00", "meta": {"OBJECT_NAME": "IRIDIUM 33 DEB", "OBJECT_ID": "1997-051BD", "EPOCH": "2025-12-15T02:05:29.319360", "MEAN_MOTION": 14.77481869, "ECCENTRICITY": 0.00094149, "INCLINATION": 86.3699, "RA_OF_ASC_NODE": 8.7591, "ARG_OF_PERICENTER": 315.0277, "MEAN_ANOMALY": 63.4557, "EPHEMERIS_TYPE": 0, "CLASSIFICATION_TYPE": "U", "NORAD_CAT_ID": 33884, "ELEMENT_SET_NO": 999, "REV_AT_EPOCH": 88882, "BSTAR": 0.00091673308, "MEAN_MOTION_DOT": 6.562e-05, "MEAN_MOTION_DDOT": 0}, "tle": {"line1": "1 33884U 97051BD  25349.08714490  .00006562  00000+0  91673-3 0  9991", "line2": "2 33884  86.3699   8.7591 0009414 315.0277  63.4557 14.77481869888821"}}, "geometry": {"type": "Point", "coordinates": [6.378262364083356, -27.52304079637602]}}, {"type": "Feature", "properties": {"norad_id": 33886, "name": "IRIDIUM 33 DEB", "group": "iridium-33-debris", "lat": 71.02744374763338, "lon": -124.81355330468136, "alt_km": 769.3812785541222, "timestamp": "2025-12-16T03:53:27.440191+00:00", "meta": {"OBJECT_NAME": "IRIDIUM 33 DEB", "OBJECT_ID": "1997-051BF", "EPOCH": "2025-12-15T07:38:09.695328", "MEAN_MOTION": 14.36055043, "ECCENTRICITY": 0.0012489, "INCLINATION": 86.383, "RA_OF_ASC_NODE": 66.1437, "ARG_OF_PERICENTER": 232.3786, "MEAN_ANOMALY": 196.0276, "EPHEMERIS_TYPE": 0, "CLASSIFICATION_TYPE": "U", "NORAD_CAT_ID": 33886, "ELEMENT_SET_NO": 999, "REV_AT_EPOCH": 88089, "BSTAR": 0.00019948096, "MEAN_MOTION_DOT": 6e-06, "MEAN_MOTION_DDOT": 0}, "tle": {"line1": "1 33886U 97051BF  25349.31816777  .00000600  00000+0  19948-3 0  9992", "line2": "2 33886  86.3830  66.1437 0012489 232.3786 196.0276 14.36055043880895"}}, "geometry": {"type": "Point", "coordinates": [-124.81355330468136, 71.02744374763338]}}, {"type": "Feature", "properties": {"norad_id": 33887, "name": "IRIDIUM 33 DEB", "group": "iridium-33-debris", "lat": 59.082923713579675, "lon": 8.112945504228202, "alt_km": 765.0491046963562, "timestamp": "2025-12-16T03:53:27.440201+00:00", "meta": {"OBJECT_NAME": "IRIDIUM 33 DEB", "OBJECT_ID": "1997-051BG", "EPOCH": "2025-12-15T07:38:54.434112", "MEAN_MOTION": 14.3722324, "ECCENTRICITY": 0.00046796, "INCLINATION": 86.3044, "RA_OF_ASC_NODE": 2.2809, "ARG_OF_PERICENTER": 215.6083, "MEAN_ANOMALY": 162.5671, "EPHEMERIS_TYPE": 0, "CLASSIFICATION_TYPE": "U", "NORAD_CAT_ID": 33887, "ELEMENT_SET_NO": 999, "REV_AT_EPOCH": 88202, "BSTAR": 0.0001518239, "MEAN_MOTION_DOT": 4.72e-06, "MEAN_MOTION_DDOT": 0}, "tle": {"line1": "1 33887U 97051BG  25349.31868558  .00000472  00000+0  15182-3 0  9990", "line2": "2 33887  86.3044   2.2809 0004679 215.6083 162.5671 14.37223240882024"}}, "geometry": {"type": "Point", "coordinates": [8.112945504228202, 59.082923713579675]}}, {"type": "Feature", "properties": {"norad_id": 33953, "name": "IRIDIUM 33 DEB", "group": "iridium-33-debris", "lat": 41.83548687175595, "lon": -130.9503620667141, "alt_km": 695.8709529765847, "timestamp": "2025-12-16T03:53:27.440212+00:00", "meta": {"OBJECT_NAME": "IRIDIUM 33 DEB", "OBJECT_ID": "1997-051BN", "EPOCH": "2025-12-15T04:17:00.443904", "MEAN_MOTION": 14.55352616, "ECCENTRICITY": 0.00182749, "INCLINATION": 86.3848, "RA_OF_ASC_NODE": 52.721, "ARG_OF_PERICENTER": 95.4842, "MEAN_ANOMALY": 292.0688, "EPHEMERIS_TYPE": 0, "CLASSIFICATION_TYPE": "U", "NORAD_CAT_ID": 33953, "ELEMENT_SET_NO": 999, "REV_AT_EPOCH": 88339, "BSTAR": 0.00072143795, "MEAN_MOTION_DOT": 3.157e-05, "MEAN_MOTION_DDOT": 0}, "tle": {"line1": "1 33953U 97051BN  25349.17847736  .00003157  00000+0  72144-3 0  9997", "line2": "2 33953  86.3848  52.7210 0018274  95.4842 292.0688 14.55352616883397"}}, "geometry": {"type": "Point", "coordinates": [-130.9503620667141, 41.83548687175595]}}, {"type": "Feature", "properties": {"norad_id": 33960, "name": "IRIDIUM 33 DEB", "group": "iridium-33-debris", "lat": -49.47760720411286, "lon": -76.49750202841756, "alt_km": 620.7429669450021, "timestamp": "2025-12-16T03:53:27.440222+00:00", "meta": {"OBJECT_NAME": "IRIDIUM 33 DEB", "OBJECT_ID": "1997-051BV", "EPOCH": "2025-12-15T07:38:03.177312", "MEAN_MOTION": 14.85338087, "ECCENTRICITY": 0.00074628, "INCLINATION": 86.2526, "RA_OF_ASC_NODE": 288.2983, "ARG_OF_PERICENTER": 58.1072, "MEAN_ANOMALY": 62.1633, "EPHEMERIS_TYPE": 0, "CLASSIFICATION_TYPE": "U", "NORAD_CAT_ID": 33960, "ELEMENT_SET_NO": 999, "REV_AT_EPOCH": 88905, "BSTAR": 0.0020005863, "MEAN_MOTION_DOT": 0.00017256, "MEAN_MOTION_DDOT": 0}, "tle": {"line1": "1 33960U 97051BV  25349.31809233  .00017256  00000+0  20006-2 0  9995", "line2": "2 33960  86.2526 288.2983 0007462  58.1072  62.1633 14.85338087889052"}}, "geometry": {"type": "Point", "coordinates": [-76.49750202841756, -49.47760720411286]}}, {"type": "Feature", "properties": {"norad_id": 33966, "name": "IRIDIUM 33 DEB", "group": "iridium-33-debris", "lat": -13.316336021700543, "lon": -134.58546264807987, "alt_km": 726.3071614161609, "timestamp": "2025-12-16T03:53:27.440233+00:00", "meta": {"OBJECT_NAME": "IRIDIUM 33 DEB", "OBJECT_ID": "1997-051CB", "EPOCH": "2025-12-15T03:56:02.670720", "MEAN_MOTION": 14.49604723, "ECCENTRICITY": 0.0007712, "INCLINATION": 86.3927, "RA_OF_ASC_NODE": 44.9872, "ARG_OF_PERICENTER": 180.0036, "MEAN_ANOMALY": 207.3268, "EPHEMERIS_TYPE": 0, "CLASSIFICATION_TYPE": "U", "NORAD_CAT_ID": 33966, "ELEMENT_SET_NO": 999, "REV_AT_EPOCH": 88477, "BSTAR": 0.0004300415, "MEAN_MOTION_DOT": 1.671e-05, "MEAN_MOTION_DDOT": 0}, "tle": {"line1": "1 33966U 97051CB  25349.16391980  .00001671  00000+0  43004-3 0  9997", "line2": "2 33966  86.3927  44.9872 0007712 180.0036 207.3268 14.49604723884775"}}, "geometry": {"type": "Point", "coordinates": [-134.58546264807987, -13.316336021700543]}}, {"type": "Feature", "properties": {"norad_id": 34071, "name": "IRIDIUM 33 DEB", "group": "iridium-33-debris", "lat": -77.53098434183514, "lon": -146.86047197813497, "alt_km": 741.4465618993436, "timestamp": "2025-12-16T03:53:27.440244+00:00", "meta": {"OBJECT_NAME": "IRIDIUM 33 DEB", "OBJECT_ID": "1997-051CE", "EPOCH": "2025-12-15T08:28:46.179264", "MEAN_MOTION": 14.49477344, "ECCENTRICITY": 0.00099829, "INCLINATION": 86.3458, "RA_OF_ASC_NODE": 16.6927, "ARG_OF_PERICENTER": 100.6332, "MEAN_ANOMALY": 259.5997, "EPHEMERIS_TYPE": 0, "CLASSIFICATION_TYPE": "U", "NORAD_CAT_ID": 34071, "ELEMENT_SET_NO": 999, "REV_AT_EPOCH": 88372, "BSTAR": 0.00050029071, "MEAN_MOTION_DOT": 1.936e-05, "MEAN_MOTION_DDOT": 0}, "tle": {"line1": "1 34071U 97051CE  25349.35331226  .00001936  00000+0  50029-3 0  9992", "line2": "2 34071  86.3458  16.6927 0009982 100.6332 259.5997 14.49477344883726"}}, "geometry": {"type": "Point", "coordinates": [-146.86047197813497, -77.53098434183514]}}]}